OBJECT_NAME,OBJECT_ID,EPOCH,MEAN_MOTION,ECCENTRICITY,INCLINATION,RA_OF_ASC_NODE,ARG_OF_PERICENTER,MEAN_ANOMALY,EPHEMERIS_TYPE,CLASSIFICATION_TYPE,NORAD_CAT_ID,ELEMENT_SET_NO,REV_AT_EPOCH,BSTAR,MEAN_MOTION_DOT,MEAN_MOTION_DDOT
INTELSAT 21 (IS-21),2012-045A,2026-06-08T06:15:48.664224,1.00272068,.00019854,0.0458,87.6548,357.4167,207.5531,0,U,38749,999,5043,0,-.269E-5,0
INTELSAT 23 (IS-23),2012-057A,2026-06-08T06:17:11.032800,1.00275334,.00005324,0.0124,337.9089,117.6241,202.4244,0,U,38867,999,4986,0,-.269E-5,0
FM-6,2013-058A,2026-06-07T11:09:47.147328,1.00260608,.00015587,0.0094,45.4890,95.5877,165.8953,0,U,39360,999,4597,0,0,0
INTELSAT 30 (IS-30),2014-062A,2026-06-07T12:58:30.650592,1.00271823,.00010646,0.0218,41.9024,4.4015,309.1838,0,U,40271,999,669,0,-.136E-5,0
DIRECTV 14,2014-078B,2026-06-07T14:40:04.079712,1.00270219,.00004897,0.0091,355.2151,185.8588,195.7159,0,U,40333,999,4194,0,-.111E-5,0
DIRECTV 15,2015-026A,2026-06-07T11:16:38.236800,1.00271546,.00004304,0.0180,0.9006,228.5203,92.7414,0,U,40663,999,4036,0,-.88E-6,0
SKY MEXICO-1,2015-026B,2026-06-07T21:36:17.197056,1.00271594,.0002227,0.0186,55.5942,39.0663,46.9150,0,U,40664,999,4036,0,-.219E-5,0
INTELSAT 34 (IS-34),2015-039A,2026-06-07T18:17:49.953408,1.00271453,.00005246,0.0104,319.7014,42.0234,113.4137,0,U,40874,999,3954,0,-.27E-5,0
INTELSAT 31 (IS-31),2016-035A,2026-06-07T09:33:16.570944,1.00271889,.0000826,0.0186,259.0986,334.9690,70.0155,0,U,41581,999,3658,0,-.137E-5,0
INTELSAT 36 (IS-36),2016-053A,2026-06-07T12:02:27.926304,1.00271488,.00018121,0.0098,351.0872,347.2262,166.7081,0,U,41747,999,3586,0,-.1E-6,0
INTELSAT 32E (IS-32E),2017-007B,2026-06-07T18:21:19.617696,1.00270608,.00006784,0.0010,354.1974,347.1216,147.0062,0,U,41945,999,3413,0,-.254E-5,0
INTELSAT 35E (IS-35E),2017-041A,2026-06-07T16:41:08.837952,1.00272821,.00018419,0.0202,62.5317,13.9992,35.3772,0,U,42818,999,3272,0,-.223E-5,0
INTELSAT 37E (IS-37E),2017-059A,2026-06-08T06:27:10.075968,1.00268369,.00023652,0.0184,347.7944,113.2660,234.3941,0,U,42950,999,3197,0,0,0
AZERSPACE 2 (IS-38),2018-074A,2026-06-08T05:02:30.322752,1.00271205,.00014568,0.0199,322.0677,111.7815,303.4927,0,U,43632,999,2835,0,.152E-5,0
HORIZONS-3E,2018-074B,2026-06-07T19:21:49.215168,1.00272627,.00008221,0.0033,245.6704,32.8636,77.1255,0,U,43633,999,2824,0,-.15E-6,0
AT&T T-16,2019-034A,2026-06-07T09:31:31.738368,1.00271029,.0000497,0.0211,62.8087,205.3448,29.6836,0,U,44333,999,2553,0,-.101E-5,0
INTELSAT 39 (IS-39),2019-049B,2026-06-08T05:07:22.355616,1.00270737,.00007659,0.0187,316.3665,2.0347,77.0057,0,U,44476,999,2503,0,.49E-6,0
GALAXY 30 (G-30),2020-056C,2026-06-07T23:05:58.462944,1.00272767,.00022381,0.0178,358.1248,76.5119,43.2111,0,U,46114,999,2120,0,.52E-6,0
GALAXY 33 (G-33),2022-128A,2026-06-07T23:03:28.702368,1.00272465,.00018624,0.0268,59.3528,17.6781,32.2136,0,U,54026,999,1365,0,.94E-6,0
GALAXY 34 (G-34),2022-128B,2026-06-07T16:14:12.484032,1.00276145,.00019377,0.0089,327.1058,125.3238,278.2116,0,U,54027,999,1381,0,.73E-6,0
GALAXY 31 (G-31),2022-153A,2026-06-07T23:07:05.854944,1.00272365,.00013325,0.0335,108.2861,329.9549,43.8995,0,U,54243,999,704,0,.28E-6,0
GALAXY 32 (G-32),2022-153B,2026-06-08T06:06:19.977696,1.00271297,.000223,0.0084,326.2391,71.2368,219.7608,0,U,54244,999,1305,0,-.159E-5,0
GALAXY 35 (G-35),2022-170A,2026-06-08T06:05:42.537120,1.00271509,.00020936,0.0256,87.1705,353.2545,174.5566,0,U,54741,999,1280,0,-.147E-5,0
GALAXY 36 (G-36),2022-170B,2026-06-07T21:33:39.949056,1.00271342,.00027338,0.0133,160.1129,282.2559,48.3522,0,U,54742,999,1268,0,-.17E-5,0
GALAXY 37 (G-37),2023-112A,2026-06-08T05:56:05.958816,1.00271647,.00019743,0.0180,341.0688,97.3857,140.2160,0,U,57493,999,1045,0,.64E-6,0
